[{"OBJECT_NAME":"STARLINK-30837","OBJECT_ID":"2023-170G","EPOCH":"2026-03-09T22:00:01.999584","MEAN_MOTION":15.26749672,"ECCENTRICITY":0.00011994,"INCLINATION":43.0006,"RA_OF_ASC_NODE":193.2309,"ARG_OF_PERICENTER":284.4029,"MEAN_ANOMALY":325.8313,"EPHEMERIS_TYPE":0,"CLASSIFICATION_TYPE":"U","NORAD_CAT_ID":58212,"ELEMENT_SET_NO":999,"REV_AT_EPOCH":572,"BSTAR":0.00067439166,"MEAN_MOTION_DOT":0.00017879,"MEAN_MOTION_DDOT":0},{"OBJECT_NAME":"OBJECT E","OBJECT_ID":"2024-174E","EPOCH":"2026-03-09T23:40:24.424320","MEAN_MOTION":15.26241811,"ECCENTRICITY":0.00122518,"INCLINATION":97.4515,"RA_OF_ASC_NODE":80.1669,"ARG_OF_PERICENTER":217.7524,"MEAN_ANOMALY":142.2856,"EPHEMERIS_TYPE":0,"CLASSIFICATION_TYPE":"U","NORAD_CAT_ID":61242,"ELEMENT_SET_NO":999,"REV_AT_EPOCH":8070,"BSTAR":0.00031155901,"MEAN_MOTION_DOT":8.013e-5,"MEAN_MOTION_DDOT":0}]
